0 SL-16 DEB
1 19658U 88102E   13281.20278105  .00000044  00000-0  78946-4 0  6407
2 19658 071.0247 197.6821 0196839 137.3740 024.4102 13.74040161246975
0 SL-16 DEB
1 19658U 88102E   13283.24179603  .00000040  00000-0  75219-4 0  6413
2 19658 071.0246 193.6858 0196772 134.4437 030.5157 13.74040700247256
0 SL-16 DEB
1 19658U 88102E   13285.41662272  .00000056  00000-0  90585-4 0  6424
2 19658 071.0245 189.4234 0196675 131.3180 348.4266 13.74040702247556
0 SL-16 DEB
1 19658U 88102E   13287.80854877  .00000093  00000-0  12488-3 0  6430
2 19658 071.0241 184.7357 0196607 127.8762 300.2374 13.74041125247889
0 SL-16 DEB
1 19658U 88102E   13289.84723328  .00000086  00000-0  11849-3 0  6445
2 19658 071.0237 180.7402 0196549 124.9401 304.7222 13.74041737248166
0 SL-16 DEB
1 19658U 88102E   13292.12045595  .00000063  00000-0  96493-4 0  6458
2 19658 071.0233 176.2852 0196527 121.6653 029.3700 13.74042332248477
0 SL-16 DEB
1 19658U 88102E   13294.72247824  .00000038  00000-0  73901-4 0  6467
2 19658 071.0232 171.1854 0196482 117.9076 300.4624 13.74043034248837
